NORAD_CAT_ID,OBJECT_NAME,OBJECT_TYPE,EPOCH,MEAN_MOTION,ECCENTRICITY,INCLINATION,RA_OF_ASC_NODE,ARG_OF_PERICENTER,MEAN_ANOMALY,BSTAR,MEAN_MOTION_DOT,MEAN_MOTION_DDOT,TLE_LINE0,TLE_LINE1,TLE_LINE2,SEMIMAJOR_AXIS,PERIOD,APOGEE,PERIGEE,DECAYED
52626.0,STARLINK-3990,PAYLOAD,2022-09-12 14:00:01,15.08856622,0.0001733,53.216,228.81,52.9888,162.85,-0.001594,-0.00025579,0.0,0 STARLINK-3990,1 52626U 22052AE  22255.58334491 -.00025579  00000-0 -15940-2 0  9996,2 52626  53.2160 228.8100 0001733  52.9888 162.8500 15.08856622  1304,6917.83,95.437,540.893,538.496,0.0
52626.0,STARLINK-3990,PAYLOAD,2022-09-12 20:00:01,15.08838781,0.0001621,53.2162,227.6867,57.6733,76.936,0.00038233,5.802e-05,0.0,0 STARLINK-3990,1 52626U 22052AE  22255.83335648  .00005802  00000-0  38233-3 0  9995,2 52626  53.2162 227.6867 0001621  57.6733  76.9360 15.08838781 19056,6917.884,95.438,540.871,538.628,0.0
52626.0,STARLINK-3990,PAYLOAD,2022-09-12 22:00:00,15.08850196,0.0001633,53.2164,227.3128,59.1731,168.2682,-0.00089497,-0.00014507,0.0,0 STARLINK-3990,1 52626U 22052AE  22255.91667824 -.00014507  00000-0 -89497-3 0  9990,2 52626  53.2164 227.3128 0001633  59.1731 168.2682 15.08850196  1308,6917.849,95.437,540.844,538.585,0.0
52626.0,STARLINK-3990,PAYLOAD,2022-09-13 14:00:01,15.08855202,0.0001585,53.2164,224.3209,51.3883,199.248,-0.0034588,-0.00054938,0.0,0 STARLINK-3990,1 52626U 22052AE  22256.58334491 -.00054938  00000-0 -34588-2 0  9997,2 52626  53.2164 224.3209 0001585  51.3883 199.2480 15.08855202  1306,6917.834,95.437,540.795,538.602,0.0
52626.0,STARLINK-3990,PAYLOAD,2022-09-13 20:00:01,15.08811915,0.0001496999999999,53.2168,223.194,56.8518,112.4856,0.0026163,0.00041564,0.0,0 STARLINK-3990,1 52626U 22052AE  22256.83334491  .00041564  00000-0  26163-2 0  9994,2 52626  53.2168 223.1940 0001497  56.8518 112.4856 15.08811915 19201,6917.965999999999,95.439,540.867,538.7959999999998,0.0
52626.0,STARLINK-3990,PAYLOAD,2022-09-13 22:00:00,15.08824801,0.0001471,53.2166,222.8238,57.7209,204.4966,0.0015130999999999,0.00023865,0.0,0 STARLINK-3990,1 52626U 22052AE  22256.91667824  .00023865  00000-0  15131-2 0  9999,2 52626  53.2166 222.8238 0001471  57.7209 204.4966 15.08824801  1308,6917.927,95.439,540.809,538.774,0.0
52626.0,STARLINK-3990,PAYLOAD,2022-09-14 04:00:00,15.08848631,0.0001571,53.2165,221.7031,51.0547,129.8511,-0.0031480999999999,-0.00050054,0.0,0 STARLINK-3990,1 52626U 22052AE  22257.16667824 -.00050054  00000-0 -31481-2 0  9995,2 52626  53.2165 221.7031 0001571  51.0547 129.8511 15.08848631 19255,6917.854,95.437,540.806,538.632,0.0
52626.0,STARLINK-3990,PAYLOAD,2022-09-14 14:00:01,15.08832749,0.0001446,53.2163,219.8319,50.029,235.3519,-0.0015011,-0.00024094,0.0,0 STARLINK-3990,1 52626U 22052AE  22257.58334491 -.00024094  00000-0 -15011-2 0  9998,2 52626  53.2163 219.8319 0001446  50.0290 235.3519 15.08832749  1306,6917.903,95.438,540.768,538.7669999999998,0.0
52626.0,STARLINK-3990,PAYLOAD,2022-09-14 20:00:01,15.08810901,0.0001365,53.2163,218.7089,56.7866,147.2796,0.0027039,0.00042973,0.0,0 STARLINK-3990,1 52626U 22052AE  22257.83334491  .00042973  00000-0  27039-2 0  9993,2 52626  53.2163 218.7089 0001365  56.7866 147.2796 15.08810901 19358,6917.969,95.439,540.779,538.89,0.0
52626.0,STARLINK-3990,PAYLOAD,2022-09-14 22:00:00,15.08829882,0.0001379,53.2164,218.3351,57.5189,239.4347,0.0011997,0.00018851,0.0,0 STARLINK-3990,1 52626U 22052AE  22257.91667824  .00018851  00000-0  11997-2 0  9995,2 52626  53.2164 218.3351 0001379  57.5189 239.4347 15.08829882  1309,6917.911,95.438,540.73,538.822,0.0
52626.0,STARLINK-3990,PAYLOAD,2022-09-15 14:00:01,15.0883674,0.0001567,53.2158,215.3431,56.3987,263.7435,-0.001764,-0.0002825,0.0,0 STARLINK-3990,1 52626U 22052AE  22258.58334491 -.00028250  00000-0 -17640-2 0  9997,2 52626  53.2158 215.3431 0001567  56.3987 263.7435 15.08836740  1309,6917.89,95.438,540.839,538.6709999999998,0.0
52626.0,STARLINK-3990,PAYLOAD,2022-09-15 16:00:00,15.08808642,0.0001509,53.2159,214.9686,59.3401,353.7064,0.0018204999999999,0.00028779,0.0,0 STARLINK-3990,1 52626U 22052AE  22258.66667824  .00028779  00000-0  18205-2 0  9997,2 52626  53.2159 214.9686 0001509  59.3401 353.7064 15.08808642 19483,6917.976,95.44,540.885,538.797,0.0
52626.0,STARLINK-3990,PAYLOAD,2022-09-15 20:32:09,15.08834121,0.0001971,53.217,214.1217,61.9262,298.1929,9.3415e-05,1.199e-05,0.0,0 STARLINK-3990,1 52626U 22052AE  22258.85566149  .00001199  00000-0  93415-4 0  9991,2 52626  53.2170 214.1217 0001971  61.9262 298.1929 15.08834121 19130,6917.898,95.438,541.127,538.4,0.0
52626.0,STARLINK-3990,PAYLOAD,2022-09-16 02:53:42,15.08825003,0.000179,53.2178,212.9327,59.2567,300.8601,1.8133e-05,0.0,0.0,0 STARLINK-3990,1 52626U 22052AE  22259.12063101  .00000000  00000-0  18133-4 0  9996,2 52626  53.2178 212.9327 0001790  59.2567 300.8601 15.08825003 19556,6917.926,95.439,541.03,538.553,0.0
52626.0,STARLINK-3990,PAYLOAD,2022-09-16 04:29:05,15.08828201,0.0001623,53.2171,212.6345,56.5473,303.5674,4.146e-05,3.72e-06,0.0,0 STARLINK-3990,1 52626U 22052AE  22259.18686826  .00000372  00000-0  41460-4 0  9998,2 52626  53.2171 212.6345 0001623  56.5473 303.5674 15.08828201 19189,6917.916,95.438,540.904,538.659,0.0
52626.0,STARLINK-3990,PAYLOAD,2022-09-16 20:22:56,15.08842387,0.0001635,53.2175,209.6601,54.416,305.6984,0.00011246,1.502e-05,0.0,0 STARLINK-3990,1 52626U 22052AE  22259.84926024  .00001502  00000-0  11246-3 0  9992,2 52626  53.2175 209.6601 0001635  54.4160 305.6984 15.08842387 19668,6917.873000000001,95.437,540.869,538.607,0.0
52626.0,STARLINK-3990,PAYLOAD,2022-09-17 04:19:51,15.08844074,0.000155,53.217,208.1736,59.2896,300.8249,0.00014764,2.063e-05,0.0,0 STARLINK-3990,1 52626U 22052AE  22260.18045749  .00002063  00000-0  14764-3 0  9998,2 52626  53.2170 208.1736 0001550  59.2896 300.8249 15.08844074 19331,6917.868,95.437,540.805,538.661,0.0
52626.0,STARLINK-3990,PAYLOAD,2022-09-17 20:13:43,15.08833004,0.0001672,53.2164,205.1999,57.7746,302.3408,9.3152e-05,1.195e-05,0.0,0 STARLINK-3990,1 52626U 22052AE  22260.84286619  .00001195  00000-0  93152-4 0  9998,2 52626  53.2164 205.1999 0001672  57.7746 302.3408 15.08833004 19812,6917.901999999999,95.438,540.923,538.61,0.0
52626.0,STARLINK-3990,PAYLOAD,2022-09-18 02:35:16,15.08830177,0.0001685,53.2165,204.0102,58.4052,301.7104,6.0643e-05,6.77e-06,0.0,0 STARLINK-3990,1 52626U 22052AE  22261.10783020  .00000677  00000-0  60643-4 0  9999,2 52626  53.2165 204.0102 0001685  58.4052 301.7104 15.08830177 19475,6917.91,95.438,540.941,538.61,0.0
52626.0,STARLINK-3990,PAYLOAD,2022-09-18 20:04:30,15.08848338,0.0001725,53.2173,200.7395,57.4834,302.6325,4.4717e-05,4.24e-06,0.0,0 STARLINK-3990,1 52626U 22052AE  22261.83645916  .00000424  00000-0  44717-4 0  9994,2 52626  53.2173 200.7395 0001725  57.4834 302.6325 15.08848338 19588,6917.855,95.437,540.913,538.5269999999998,0.0
52626.0,STARLINK-3990,PAYLOAD,2022-09-19 02:26:02,15.08851387,0.0001728,53.2178,199.5506,57.3017,302.8141,7.1526e-05,8.51e-06,0.0,0 STARLINK-3990,1 52626U 22052AE  22262.10141512  .00000851  00000-0  71526-4 0  9990,2 52626  53.2178 199.5506 0001728  57.3017 302.8141 15.08851387 19628,6917.846,95.437,540.906,538.515,0.0
52626.0,STARLINK-3990,PAYLOAD,2022-09-19 23:06:03,15.08835484,0.0001698,53.2183,195.6856,61.4612,298.6551,8.741e-05,1.103e-05,0.0,0 STARLINK-3990,1 52626U 22052AE  22262.96254246  .00001103  00000-0  87410-4 0  9993,2 52626  53.2183 195.6856 0001698  61.4612 298.6551 15.08835484 20137,6917.894,95.438,540.934,538.585,0.0
52626.0,STARLINK-3990,PAYLOAD,2022-09-20 05:27:36,15.08838105,0.0001554999999999,53.218,194.4939,61.4449,298.67,5.4464e-05,5.79e-06,0.0,0 STARLINK-3990,1 52626U 22052AE  22263.22750135  .00000579  00000-0  54464-4 0  9990,2 52626  53.2180 194.4939 0001555  61.4449 298.6700 15.08838105 19792,6917.886,95.438,540.827,538.675,0.0
52626.0,STARLINK-3990,PAYLOAD,2022-09-21 00:32:13,15.08849955,0.0001918,53.2185,190.9257,66.0317,294.0876,-0.00016099,-2.85e-05,0.0,0 STARLINK-3990,1 52626U 22052AE  22264.02238043 -.00002850  00000-0 -16099-3 0  9995,2 52626  53.2185 190.9257 0001918  66.0317 294.0876 15.08849955 20295,6917.85,95.437,541.0419999999998,538.388,0.0
52626.0,STARLINK-3990,PAYLOAD,2022-09-21 18:01:28,15.08832194,0.0001418,53.2168,187.6543,54.8896,305.2229,6.5498e-06,-1.84e-06,0.0,0 STARLINK-3990,1 52626U 22052AE  22264.75102666 -.00000184  00000-0  65498-5 0  9992,2 52626  53.2168 187.6543 0001418  54.8896 305.2229 15.08832194 20024,6917.904,95.438,540.75,538.788,0.0
52626.0,STARLINK-3990,PAYLOAD,2022-09-22 11:30:43,15.08827378,0.0001512,53.2164,184.384,47.1069,313.005,-8.3101e-06,-4.2e-06,0.0,0 STARLINK-3990,1 52626U 22052AE  22265.47967457 -.00000420  00000-0 -83101-5 0  9994,2 52626  53.2164 184.3840 0001512  47.1069 313.0050 15.08827378 20517,6917.919,95.438,540.83,538.738,0.0
52626.0,STARLINK-3990,PAYLOAD,2022-09-23 01:49:11,15.08837359,0.0001450999999999,53.2154,181.7077,44.8697,315.2412,2.2409e-05,6.9e-07,0.0,0 STARLINK-3990,1 52626U 22052AE  22266.07583096  .00000069  00000-0  22409-4 0  9994,2 52626  53.2154 181.7077 0001451  44.8697 315.2412 15.08837359 20608,6917.888000000001,95.438,540.757,538.75,0.0
52626.0,STARLINK-3990,PAYLOAD,2022-09-24 01:39:59,15.08835218,0.0001504,53.2174,177.2484,49.9761,310.1363,7.4685e-05,9.01e-06,0.0,0 STARLINK-3990,1 52626U 22052AE  22267.06943395  .00000901  00000-0  74685-4 0  9994,2 52626  53.2174 177.2484 0001504  49.9761 310.1363 15.08835218 20374,6917.895,95.438,540.8,538.72,0.0
52626.0,STARLINK-3990,PAYLOAD,2022-09-25 01:30:44,15.08854145,0.000146,53.2163,172.7902,70.4914,289.6236,0.00017975,2.575e-05,0.0,0 STARLINK-3990,1 52626U 22052AE  22268.06301787  .00002575  00000-0  17975-3 0  9995,2 52626  53.2163 172.7902 0001460  70.4914 289.6236 15.08854145 20905,6917.837,95.437,540.712,538.692,0.0
